{
    "links": {
        "self": "http://www.neowsapp.com/rest/v1/neo/3557804?api_key=iIulBulltgU6a56xZRHN4H3l9WmuAYTsLGpBGhQ2"
    },
    "id": "3557804",
    "neo_reference_id": "3557804",
    "name": "(2011 BZ59)",
    "designation": "2011 BZ59",
    "nasa_jpl_url": "http://ssd.jpl.nasa.gov/sbdb.cgi?sstr=3557804",
    "absolute_magnitude_h": 25.4,
    "estimated_diameter": {
        "kilometers": {
            "estimated_diameter_min": 0.022108281,
            "estimated_diameter_max": 0.0494356193
        },
        "meters": {
            "estimated_diameter_min": 22.1082810359,
            "estimated_diameter_max": 49.435619262
        },
        "miles": {
            "estimated_diameter_min": 0.0137374447,
            "estimated_diameter_max": 0.0307178602
        },
        "feet": {
            "estimated_diameter_min": 72.5337327539,
            "estimated_diameter_max": 162.1903570994
        }
    },
    "is_potentially_hazardous_asteroid": false,
    "close_approach_data": [
        {
            "close_approach_date": "2006-01-11",
            "close_approach_date_full": "2006-Jan-11 10:00",
            "epoch_date_close_approach": 1136973600000,
            "relative_velocity": {
                "kilometers_per_second": "6.6733729736",
                "kilometers_per_hour": "24024.142705117",
                "miles_per_hour": "14927.6680047434"
            },
            "miss_distance": {
                "astronomical": "0.1989445592",
                "lunar": "77.3894335288",
                "kilometers": "29761682.304408904",
                "miles": "18493051.8497507152"
            },
            "orbiting_body": "Earth"
        },
        {
            "close_approach_date": "2011-01-20",
            "close_approach_date_full": "2011-Jan-20 11:27",
            "epoch_date_close_approach": 1295522820000,
            "relative_velocity": {
                "kilometers_per_second": "4.0322512116",
                "kilometers_per_hour": "14516.1043617242",
                "miles_per_hour": "9019.7427352058"
            },
            "miss_distance": {
                "astronomical": "0.1192073804",
                "lunar": "46.3716709756",
                "kilometers": "17833170.196119748",
                "miles": "11081018.1262306024"
            },
            "orbiting_body": "Earth"
        },
        {
            "close_approach_date": "2016-01-28",
            "close_approach_date_full": "2016-Jan-28 08:05",
            "epoch_date_close_approach": 1453968300000,
            "relative_velocity": {
                "kilometers_per_second": "4.0286046486",
                "kilometers_per_hour": "14502.9767348204",
                "miles_per_hour": "9011.5857383666"
            },
            "miss_distance": {
                "astronomical": "0.1154407696",
                "lunar": "44.9064593744",
                "kilometers": "17269693.243320752",
                "miles": "10730889.7834282976"
            },
            "orbiting_body": "Earth"
        }
    ],
    "orbital_data": {
        "orbit_id": "7",
        "orbit_determination_date": "2020-11-11 13:50:19",
        "first_observation_date": "2011-01-30",
        "last_observation_date": "2011-03-02",
        "data_arc_in_days": 31,
        "observations_used": 12,
        "orbit_uncertainty": "7",
        "minimum_orbit_intersection": ".104924",
        "jupiter_tisserand_invariant": "3.905",
        "epoch_osculation": "2459000.5",
        "eccentricity": ".4104050759142589",
        "semi_major_axis": "1.845729794311443",
        "inclination": "1.347831402224479",
        "ascending_node_longitude": "159.0055597206654",
        "orbital_period": "915.9053820855784",
        "perihelion_distance": "1.088232917959846",
        "perihelion_argument": "323.4626121638317",
        "aphelion_distance": "2.60322667066304",
        "perihelion_time": "2459245.848223615500",
        "mean_anomaly": "263.5649727262686",
        "mean_motion": ".393053700787581",
        "equinox": "J2000",
        "orbit_class": {
            "orbit_class_type": "AMO",
            "orbit_class_description": "Near-Earth asteroid orbits similar to that of 1221 Amor",
            "orbit_class_range": "1.017 AU < q (perihelion) < 1.3 AU"
        }
    },
    "is_sentry_object": false
}